{"type": "FeatureCollection", "features": [ {"type": "Feature", "properties": {"norad_id": 35744, "name": "IRIDIUM 33 DEB", "group": "iridium-33-debris", "lat": 83.93795765844459, "lon": 2.77792468825653, "alt_km": 654.8942437528849, "timestamp": "2025-12-12T09:49:09.117449+00:00", "meta": {"OBJECT_NAME": "IRIDIUM 33 DEB", "OBJECT_ID": "1997-051RX", "EPOCH": "2025-12-11T05:40:38.680320", "MEAN_MOTION": 14.70964353, "ECCENTRICITY": 0.00200948, "INCLINATION": 86.3293, "RA_OF_ASC_NODE": 326.1153, "ARG_OF_PERICENTER": 197.6231, "MEAN_ANOMALY": 162.4291, "EPHEMERIS_TYPE": 0, "CLASSIFICATION_TYPE": "U", "NORAD_CAT_ID": 35744, "ELEMENT_SET_NO": 999, "REV_AT_EPOCH": 87309, "BSTAR": 0.0023208663, "MEAN_MOTION_DOT": 0.00014305, "MEAN_MOTION_DDOT": 0}, "tle": {"line1": "1 35744U 97051RX  25345.23655880  .00014305  00000+0  23209-2 0  9991", "line2": "2 35744  86.3293 326.1153 0020094 197.6231 162.4291 14.70964353873095"}}, "geometry": {"type": "Point", "coordinates": [2.77792468825653, 83.93795765844459]}}, {"type": "Feature", "properties": {"norad_id": 35797, "name": "IRIDIUM 33 DEB", "group": "iridium-33-debris", "lat": 20.556500362671162, "lon": 148.74818542454784, "alt_km": 611.7279482452223, "timestamp": "2025-12-12T09:49:09.117459+00:00", "meta": {"OBJECT_NAME": "IRIDIUM 33 DEB", "OBJECT_ID": "1997-051SF", "EPOCH": "2025-12-11T05:34:05.709792", "MEAN_MOTION": 14.82689252, "ECCENTRICITY": 0.00131617, "INCLINATION": 86.3363, "RA_OF_ASC_NODE": 330.6656, "ARG_OF_PERICENTER": 152.8945, "MEAN_ANOMALY": 207.2968, "EPHEMERIS_TYPE": 0, "CLASSIFICATION_TYPE": "U", "NORAD_CAT_ID": 35797, "ELEMENT_SET_NO": 999, "REV_AT_EPOCH": 87318, "BSTAR": 0.0027879355, "MEAN_MOTION_DOT": 0.00022588, "MEAN_MOTION_DDOT": 0}, "tle": {"line1": "1 35797U 97051SF  25345.23201053  .00022588  00000+0  27879-2 0  9997", "line2": "2 35797  86.3363 330.6656 0013161 152.8945 207.2968 14.82689252873185"}}, "geometry": {"type": "Point", "coordinates": [148.74818542454784, 20.556500362671162]}}, {"type": "Feature", "properties": {"norad_id": 35806, "name": "IRIDIUM 33 DEB", "group": "iridium-33-debris", "lat": 44.208021288414244, "lon": -162.79164874089756, "alt_km": 692.3702346678656, "timestamp": "2025-12-12T09:49:09.117470+00:00", "meta": {"OBJECT_NAME": "IRIDIUM 33 DEB", "OBJECT_ID": "1997-051SQ", "EPOCH": "2025-12-10T20:56:47.284800", "MEAN_MOTION": 14.5731398, "ECCENTRICITY": 0.0016091, "INCLINATION": 86.344, "RA_OF_ASC_NODE": 21.4504, "ARG_OF_PERICENTER": 81.1516, "MEAN_ANOMALY": 279.1514, "EPHEMERIS_TYPE": 0, "CLASSIFICATION_TYPE": "U", "NORAD_CAT_ID": 35806, "ELEMENT_SET_NO": 999, "REV_AT_EPOCH": 86297, "BSTAR": 0.0016785, "MEAN_MOTION_DOT": 7.632e-05, "MEAN_MOTION_DDOT": 0}, "tle": {"line1": "1 35806U 97051SQ  25344.87276950  .00007632  00000+0  16785-2 0  9992", "line2": "2 35806  86.3440  21.4504 0016091  81.1516 279.1514 14.57313980862976"}}, "geometry": {"type": "Point", "coordinates": [-162.79164874089756, 44.208021288414244]}}, {"type": "Feature", "properties": {"norad_id": 35809, "name": "IRIDIUM 33 DEB", "group": "iridium-33-debris", "lat": 61.735392117756135, "lon": 148.6415612798911, "alt_km": 641.159216681096, "timestamp": "2025-12-12T09:49:09.117481+00:00", "meta": {"OBJECT_NAME": "IRIDIUM 33 DEB", "OBJECT_ID": "1997-051ST", "EPOCH": "2025-12-10T16:35:56.421600", "MEAN_MOTION": 14.75629145, "ECCENTRICITY": 0.00097103, "INCLINATION": 86.329, "RA_OF_ASC_NODE": 336.2813, "ARG_OF_PERICENTER": 251.0565, "MEAN_ANOMALY": 108.9602, "EPHEMERIS_TYPE": 0, "CLASSIFICATION_TYPE": "U", "NORAD_CAT_ID": 35809, "ELEMENT_SET_NO": 999, "REV_AT_EPOCH": 86777, "BSTAR": 0.0026432017, "MEAN_MOTION_DOT": 0.00018102, "MEAN_MOTION_DDOT": 0}, "tle": {"line1": "1 35809U 97051ST  25344.69162525  .00018102  00000+0  26432-2 0  9991", "line2": "2 35809  86.3290 336.2813 0009710 251.0565 108.9602 14.75629145867777"}}, "geometry": {"type": "Point", "coordinates": [148.6415612798911, 61.735392117756135]}}, {"type": "Feature", "properties": {"norad_id": 35846, "name": "IRIDIUM 33 DEB", "group": "iridium-33-debris", "lat": -61.66107272840965, "lon": 52.23113128661811, "alt_km": 763.3644743778787, "timestamp": "2025-12-12T09:49:09.117491+00:00", "meta": {"OBJECT_NAME": "IRIDIUM 33 DEB", "OBJECT_ID": "1997-051SW", "EPOCH": "2025-12-10T23:09:37.938816", "MEAN_MOTION": 14.43148066, "ECCENTRICITY": 0.0018649, "INCLINATION": 86.3748, "RA_OF_ASC_NODE": 59.598, "ARG_OF_PERICENTER": 175.7823, "MEAN_ANOMALY": 184.3539, "EPHEMERIS_TYPE": 0, "CLASSIFICATION_TYPE": "U", "NORAD_CAT_ID": 35846, "ELEMENT_SET_NO": 999, "REV_AT_EPOCH": 71303, "BSTAR": 0.00091839, "MEAN_MOTION_DOT": 3.109e-05, "MEAN_MOTION_DDOT": 0}, "tle": {"line1": "1 35846U 97051SW  25344.96502244  .00003109  00000+0  91839-3 0  9993", "line2": "2 35846  86.3748  59.5980 0018649 175.7823 184.3539 14.43148066713035"}}, "geometry": {"type": "Point", "coordinates": [52.23113128661811, -61.66107272840965]}}, {"type": "Feature", "properties": {"norad_id": 35848, "name": "IRIDIUM 33 DEB", "group": "iridium-33-debris", "lat": 66.76994220744406, "lon": 24.72925734562129, "alt_km": 630.223385569805, "timestamp": "2025-12-12T09:49:09.117501+00:00", "meta": {"OBJECT_NAME": "IRIDIUM 33 DEB", "OBJECT_ID": "1997-051SY", "EPOCH": "2025-12-11T20:31:22.881216", "MEAN_MOTION": 14.78606603, "ECCENTRICITY": 0.0007707, "INCLINATION": 86.3908, "RA_OF_ASC_NODE": 16.5221, "ARG_OF_PERICENTER": 192.3234, "MEAN_ANOMALY": 167.7799, "EPHEMERIS_TYPE": 0, "CLASSIFICATION_TYPE": "U", "NORAD_CAT_ID": 35848, "ELEMENT_SET_NO": 999, "REV_AT_EPOCH": 66677, "BSTAR": 0.0023841, "MEAN_MOTION_DOT": 0.00017502, "MEAN_MOTION_DDOT": 0}, "tle": {"line1": "1 35848U 97051SY  25345.85512594  .00017502  00000+0  23841-2 0  9992", "line2": "2 35848  86.3908  16.5221 0007707 192.3234 167.7799 14.78606603666775"}}, "geometry": {"type": "Point", "coordinates": [24.72925734562129, 66.76994220744406]}}, {"type": "Feature", "properties": {"norad_id": 35850, "name": "IRIDIUM 33 DEB", "group": "iridium-33-debris", "lat": 32.49280896932344, "lon": -13.272526315887141, "alt_km": 636.5352265700158, "timestamp": "2025-12-12T09:49:09.117513+00:00", "meta": {"OBJECT_NAME": "IRIDIUM 33 DEB", "OBJECT_ID": "1997-051TA", "EPOCH": "2025-12-06T07:30:15.621984", "MEAN_MOTION": 14.78601393, "ECCENTRICITY": 0.00083892, "INCLINATION": 86.3487, "RA_OF_ASC_NODE": 347.1693, "ARG_OF_PERICENTER": 210.267, "MEAN_ANOMALY": 149.8067, "EPHEMERIS_TYPE": 0, "CLASSIFICATION_TYPE": "U", "NORAD_CAT_ID": 35850, "ELEMENT_SET_NO": 999, "REV_AT_EPOCH": 71262, "BSTAR": 0.0028291764, "MEAN_MOTION_DOT": 0.00020775, "MEAN_MOTION_DDOT": 0}, "tle": {"line1": "1 35850U 97051TA  25340.31268081  .00020775  00000+0  28292-2 0  9991", "line2": "2 35850  86.3487 347.1693 0008389 210.2670 149.8067 14.78601393712623"}}, "geometry": {"type": "Point", "coordinates": [-13.272526315887141, 32.49280896932344]}}, {"type": "Feature", "properties": {"norad_id": 35915, "name": "IRIDIUM 33 DEB", "group": "iridium-33-debris", "lat": -29.920472529259857, "lon": -19.00078296453721, "alt_km": 638.5002931269728, "timestamp": "2025-12-12T09:49:09.117524+00:00", "meta": {"OBJECT_NAME": "IRIDIUM 33 DEB", "OBJECT_ID": "1997-051TY", "EPOCH": "2025-12-07T18:02:16.498176", "MEAN_MOTION": 14.80542095, "ECCENTRICITY": 0.00101746, "INCLINATION": 86.3429, "RA_OF_ASC_NODE": 345.2367, "ARG_OF_PERICENTER": 205.9072, "MEAN_ANOMALY": 154.1641, "EPHEMERIS_TYPE": 0, "CLASSIFICATION_TYPE": "U", "NORAD_CAT_ID": 35915, "ELEMENT_SET_NO": 999, "REV_AT_EPOCH": 8012, "BSTAR": 0.0030076362, "MEAN_MOTION_DOT": 0.00023136, "MEAN_MOTION_DDOT": 0}, "tle": {"line1": "1 35915U 97051TY  25341.75157984  .00023136  00000+0  30076-2 0  9998", "line2": "2 35915  86.3429 345.2367 0010174 205.9072 154.1641 14.80542095 80126"}}, "geometry": {"type": "Point", "coordinates": [-19.00078296453721, -29.920472529259857]}}, {"type": "Feature", "properties": {"norad_id": 35918, "name": "IRIDIUM 33 DEB", "group": "iridium-33-debris", "lat": 20.376408241949115, "lon": -105.38237240431117, "alt_km": 702.5837311605455, "timestamp": "2025-12-12T09:49:09.117534+00:00", "meta": {"OBJECT_NAME": "IRIDIUM 33 DEB", "OBJECT_ID": "1997-051UB", "EPOCH": "2025-12-11T00:33:20.254176", "MEAN_MOTION": 14.51217376, "ECCENTRICITY": 0.00274283, "INCLINATION": 86.4008, "RA_OF_ASC_NODE": 76.552, "ARG_OF_PERICENTER": 175.0767, "MEAN_ANOMALY": 308.1534, "EPHEMERIS_TYPE": 0, "CLASSIFICATION_TYPE": "U", "NORAD_CAT_ID": 35918, "ELEMENT_SET_NO": 999, "REV_AT_EPOCH": 85182, "BSTAR": 0.001804054, "MEAN_MOTION_DOT": 7.222e-05, "MEAN_MOTION_DDOT": 0}, "tle": {"line1": "1 35918U 97051UB  25345.02315109  .00007222  00000+0  18041-2 0  9996", "line2": "2 35918  86.4008  76.5520 0027428 175.0767 308.1534 14.51217376851820"}}, "geometry": {"type": "Point", "coordinates": [-105.38237240431117, 20.376408241949115]}}, {"type": "Feature", "properties": {"norad_id": 35929, "name": "IRIDIUM 33 DEB", "group": "iridium-33-debris", "lat": -29.804264654117738, "lon": 134.8929441980174, "alt_km": 578.2260606429263, "timestamp": "2025-12-12T09:49:09.117547+00:00", "meta": {"OBJECT_NAME": "IRIDIUM 33 DEB", "OBJECT_ID": "1997-051UN", "EPOCH": "2025-12-12T04:05:36.007296", "MEAN_MOTION": 15.02344569, "ECCENTRICITY": 0.0018262, "INCLINATION": 86.3329, "RA_OF_ASC_NODE": 312.9007, "ARG_OF_PERICENTER": 38.7849, "MEAN_ANOMALY": 321.4691, "EPHEMERIS_TYPE": 0, "CLASSIFICATION_TYPE": "U", "NORAD_CAT_ID": 35929, "ELEMENT_SET_NO": 999, "REV_AT_EPOCH": 87771, "BSTAR": 0.0034494, "MEAN_MOTION_DOT": 0.0004602, "MEAN_MOTION_DDOT": 0}, "tle": {"line1": "1 35929U 97051UN  25346.17055564  .00046020  00000+0  34494-2 0  9990", "line2": "2 35929  86.3329 312.9007 0018262  38.7849 321.4691 15.02344569877716"}}, "geometry": {"type": "Point", "coordinates": [134.8929441980174, -29.804264654117738]}}]}